{
  "links" : {
    "next" : "https://api.nasa.gov/neo/rest/v1/feed?start_date=2006-05-23&end_date=2006-05-23&detailed=true&api_key=t0TVs3DtDT2H8Oy2Zy8m2eVrNsAVKAexjcZXUckd",
    "prev" : "https://api.nasa.gov/neo/rest/v1/feed?start_date=2006-05-21&end_date=2006-05-21&detailed=true&api_key=t0TVs3DtDT2H8Oy2Zy8m2eVrNsAVKAexjcZXUckd",
    "self" : "https://api.nasa.gov/neo/rest/v1/feed?start_date=2006-05-22&end_date=2006-05-22&detailed=true&api_key=t0TVs3DtDT2H8Oy2Zy8m2eVrNsAVKAexjcZXUckd"
  },
  "element_count" : 4,
  "near_earth_objects" : {
    "2006-05-22" : [ {
      "links" : {
        "self" : "https://api.nasa.gov/neo/rest/v1/neo/2010563?api_key=t0TVs3DtDT2H8Oy2Zy8m2eVrNsAVKAexjcZXUckd"
      },
      "neo_reference_id" : "2010563",
      "name" : "10563 Izhdubar (1993 WD)",
      "nasa_jpl_url" : "http://ssd.jpl.nasa.gov/sbdb.cgi?sstr=2010563",
      "absolute_magnitude_h" : 16.8,
      "estimated_diameter" : {
        "kilometers" : {
          "estimated_diameter_min" : 1.1602590821,
          "estimated_diameter_max" : 2.5944181791
        },
        "meters" : {
          "estimated_diameter_min" : 1160.2590820944,
          "estimated_diameter_max" : 2594.4181790745
        },
        "miles" : {
          "estimated_diameter_min" : 0.7209513461,
          "estimated_diameter_max" : 1.6120962183
        },
        "feet" : {
          "estimated_diameter_min" : 3806.6244068985,
          "estimated_diameter_max" : 8511.8709386348
        }
      },
      "is_potentially_hazardous_asteroid" : false,
      "close_approach_data" : [ {
        "close_approach_date" : "2006-05-22",
        "epoch_date_close_approach" : 1148281200000,
        "relative_velocity" : {
          "kilometers_per_second" : "35.8169446107",
          "kilometers_per_hour" : "128941.0005986798",
          "miles_per_hour" : "80118.9233997742"
        },
        "miss_distance" : {
          "astronomical" : "0.2265354534",
          "lunar" : "88.1222915649",
          "kilometers" : "33889220",
          "miles" : "21057786"
        },
        "orbiting_body" : "Earth"
      } ],
      "orbital_data" : {
        "orbit_id" : "65",
        "orbit_determination_date" : "2017-04-06 09:29:55",
        "orbit_uncertainty" : "0",
        "minimum_orbit_intersection" : ".145897",
        "jupiter_tisserand_invariant" : "5.546",
        "epoch_osculation" : "2458000.5",
        "eccentricity" : ".2663994687069813",
        "semi_major_axis" : "1.00691912020289",
        "inclination" : "63.46349360666655",
        "ascending_node_longitude" : "56.56469836729689",
        "orbital_period" : "369.054332757176",
        "perihelion_distance" : ".7386764015499393",
        "perihelion_argument" : "132.2062796123216",
        "aphelion_distance" : "1.275161838855841",
        "perihelion_time" : "2457907.834644239439",
        "mean_anomaly" : "90.39191553334585",
        "mean_motion" : ".9754661253004894",
        "equinox" : "J2000"
      }
    }, {
      "links" : {
        "self" : "https://api.nasa.gov/neo/rest/v1/neo/3479011?api_key=t0TVs3DtDT2H8Oy2Zy8m2eVrNsAVKAexjcZXUckd"
      },
      "neo_reference_id" : "3479011",
      "name" : "(2009 WZ104)",
      "nasa_jpl_url" : "http://ssd.jpl.nasa.gov/sbdb.cgi?sstr=3479011",
      "absolute_magnitude_h" : 20.4,
      "estimated_diameter" : {
        "kilometers" : {
          "estimated_diameter_min" : 0.2210828104,
          "estimated_diameter_max" : 0.4943561926
        },
        "meters" : {
          "estimated_diameter_min" : 221.0828103591,
          "estimated_diameter_max" : 494.3561926196
        },
        "miles" : {
          "estimated_diameter_min" : 0.137374447,
          "estimated_diameter_max" : 0.3071786018
        },
        "feet" : {
          "estimated_diameter_min" : 725.3373275385,
          "estimated_diameter_max" : 1621.9035709942
        }
      },
      "is_potentially_hazardous_asteroid" : true,
      "close_approach_data" : [ {
        "close_approach_date" : "2006-05-22",
        "epoch_date_close_approach" : 1148281200000,
        "relative_velocity" : {
          "kilometers_per_second" : "10.4281372626",
          "kilometers_per_hour" : "37541.2941455033",
          "miles_per_hour" : "23326.700242799"
        },
        "miss_distance" : {
          "astronomical" : "0.3096172608",
          "lunar" : "120.4411087036",
          "kilometers" : "46318080",
          "miles" : "28780722"
        },
        "orbiting_body" : "Earth"
      } ],
      "orbital_data" : {
        "orbit_id" : "55",
        "orbit_determination_date" : "2017-04-06 08:58:55",
        "orbit_uncertainty" : "1",
        "minimum_orbit_intersection" : ".0306929",
        "jupiter_tisserand_invariant" : "6.867",
        "epoch_osculation" : "2457800.5",
        "eccentricity" : ".1926435192942337",
        "semi_major_axis" : ".8553546514853113",
        "inclination" : "9.834744247511509",
        "ascending_node_longitude" : "263.2807382780202",
        "orbital_period" : "288.9467134407876",
        "perihelion_distance" : ".6905761211784882",
        "perihelion_argument" : "10.54402284841301",
        "aphelion_distance" : "1.020133181792134",
        "perihelion_time" : "2457942.734036696943",
        "mean_anomaly" : "182.789978812503",
        "mean_motion" : "1.245904463536226",
        "equinox" : "J2000"
      }
    }, {
      "links" : {
        "self" : "https://api.nasa.gov/neo/rest/v1/neo/3709453?api_key=t0TVs3DtDT2H8Oy2Zy8m2eVrNsAVKAexjcZXUckd"
      },
      "neo_reference_id" : "3709453",
      "name" : "(2015 CB)",
      "nasa_jpl_url" : "http://ssd.jpl.nasa.gov/sbdb.cgi?sstr=3709453",
      "absolute_magnitude_h" : 23.2,
      "estimated_diameter" : {
        "kilometers" : {
          "estimated_diameter_min" : 0.0608912622,
          "estimated_diameter_max" : 0.1361570015
        },
        "meters" : {
          "estimated_diameter_min" : 60.8912622106,
          "estimated_diameter_max" : 136.1570015386
        },
        "miles" : {
          "estimated_diameter_min" : 0.0378360645,
          "estimated_diameter_max" : 0.0846040122
        },
        "feet" : {
          "estimated_diameter_min" : 199.7744887109,
          "estimated_diameter_max" : 446.7093369279
        }
      },
      "is_potentially_hazardous_asteroid" : false,
      "close_approach_data" : [ {
        "close_approach_date" : "2006-05-22",
        "epoch_date_close_approach" : 1148281200000,
        "relative_velocity" : {
          "kilometers_per_second" : "18.999428625",
          "kilometers_per_hour" : "68397.9430501458",
          "miles_per_hour" : "42499.8218913531"
        },
        "miss_distance" : {
          "astronomical" : "0.4727276191",
          "lunar" : "183.8910522461",
          "kilometers" : "70719048",
          "miles" : "43942780"
        },
        "orbiting_body" : "Earth"
      } ],
      "orbital_data" : {
        "orbit_id" : "19",
        "orbit_determination_date" : "2017-04-06 08:35:51",
        "orbit_uncertainty" : "2",
        "minimum_orbit_intersection" : ".052939",
        "jupiter_tisserand_invariant" : "6.319",
        "epoch_osculation" : "2458000.5",
        "eccentricity" : ".205642807770445",
        "semi_major_axis" : ".9430904268389761",
        "inclination" : "15.75519127329523",
        "ascending_node_longitude" : "319.2038717850664",
        "orbital_period" : "334.5248860998847",
        "perihelion_distance" : ".7491506634823816",
        "perihelion_argument" : "47.62938157285137",
        "aphelion_distance" : "1.137030190195571",
        "perihelion_time" : "2457962.694041027079",
        "mean_anomaly" : "40.68500071527633",
        "mean_motion" : "1.076153120316761",
        "equinox" : "J2000"
      }
    }, {
      "links" : {
        "self" : "https://api.nasa.gov/neo/rest/v1/neo/2490581?api_key=t0TVs3DtDT2H8Oy2Zy8m2eVrNsAVKAexjcZXUckd"
      },
      "neo_reference_id" : "2490581",
      "name" : "490581 (2009 WZ104)",
      "nasa_jpl_url" : "http://ssd.jpl.nasa.gov/sbdb.cgi?sstr=2490581",
      "absolute_magnitude_h" : 20.4,
      "estimated_diameter" : {
        "kilometers" : {
          "estimated_diameter_min" : 0.2210828104,
          "estimated_diameter_max" : 0.4943561926
        },
        "meters" : {
          "estimated_diameter_min" : 221.0828103591,
          "estimated_diameter_max" : 494.3561926196
        },
        "miles" : {
          "estimated_diameter_min" : 0.137374447,
          "estimated_diameter_max" : 0.3071786018
        },
        "feet" : {
          "estimated_diameter_min" : 725.3373275385,
          "estimated_diameter_max" : 1621.9035709942
        }
      },
      "is_potentially_hazardous_asteroid" : true,
      "close_approach_data" : [ {
        "close_approach_date" : "2006-05-22",
        "epoch_date_close_approach" : 1148281200000,
        "relative_velocity" : {
          "kilometers_per_second" : "10.4281373823",
          "kilometers_per_hour" : "37541.2945761695",
          "miles_per_hour" : "23326.7005103982"
        },
        "miss_distance" : {
          "astronomical" : "0.3096172608",
          "lunar" : "120.4411087036",
          "kilometers" : "46318080",
          "miles" : "28780722"
        },
        "orbiting_body" : "Earth"
      } ],
      "orbital_data" : {
        "orbit_id" : "56",
        "orbit_determination_date" : "2017-05-15 19:06:41",
        "orbit_uncertainty" : "1",
        "minimum_orbit_intersection" : ".0311462",
        "jupiter_tisserand_invariant" : "6.867",
        "epoch_osculation" : "2458000.5",
        "eccentricity" : ".1926426222105336",
        "semi_major_axis" : ".8553588787643515",
        "inclination" : "9.834617742563426",
        "ascending_node_longitude" : "263.2779736491007",
        "orbital_period" : "288.9488554643783",
        "perihelion_distance" : ".6905803014281249",
        "perihelion_argument" : "10.53439141984141",
        "aphelion_distance" : "1.020137456100578",
        "perihelion_time" : "2457942.726287002592",
        "mean_anomaly" : "71.97999329549448",
        "mean_motion" : "1.245895227449277",
        "equinox" : "J2000"
      }
    } ]
  }
}